NORAD_CAT_ID,OBJECT_NAME,OBJECT_TYPE,EPOCH,MEAN_MOTION,ECCENTRICITY,INCLINATION,RA_OF_ASC_NODE,ARG_OF_PERICENTER,MEAN_ANOMALY,BSTAR,MEAN_MOTION_DOT,MEAN_MOTION_DDOT,TLE_LINE0,TLE_LINE1,TLE_LINE2,SEMIMAJOR_AXIS,PERIOD,APOGEE,PERIGEE,DECAYED
52662.0,STARLINK-4044,PAYLOAD,2023-12-23 11:23:59,15.0883806,0.0001343,53.2156,177.8477,95.7723,264.3422,6.6442e-05,7.7e-06,0.0,0 STARLINK-4044,1 52662U 22053G   23357.47499548  .00000770  00000-0  66442-4 0  9993,2 52662  53.2156 177.8477 0001343  95.7723 264.3422 15.08838060 89188,6917.886,95.438,540.68,538.822,0.0
52662.0,STARLINK-4044,PAYLOAD,2023-12-23 17:45:32,15.08837608,0.0001341,53.2159,176.6575,99.976,260.1383,5.0183e-05,5.11e-06,0.0,0 STARLINK-4044,1 52662U 22053G   23357.73995625  .00000511  00000-0  50183-4 0  9997,2 52662  53.2159 176.6575 0001341  99.9760 260.1383 15.08837608 89224,6917.888,95.438,540.68,538.825,0.0
52662.0,STARLINK-4044,PAYLOAD,2023-12-24 12:50:09,15.08841774,0.0001407,53.2167,173.09,98.6014,261.5138,6.3983e-05,7.31e-06,0.0,0 STARLINK-4044,1 52662U 22053G   23358.53483354  .00000731  00000-0  63983-4 0  9993,2 52662  53.2167 173.0900 0001407  98.6014 261.5138 15.08841774 89342,6917.875,95.437,540.713,538.767,0.0
52662.0,STARLINK-4044,PAYLOAD,2023-12-24 19:11:42,15.08844024,0.000135,53.2166,171.9004,93.3111,266.8035,7.2204e-05,8.62e-06,0.0,0 STARLINK-4044,1 52662U 22053G   23358.79979172  .00000862  00000-0  72204-4 0  9990,2 52662  53.2166 171.9004 0001350  93.3111 266.8035 15.08844024 89389,6917.868,95.437,540.667,538.799,0.0
52662.0,STARLINK-4044,PAYLOAD,2023-12-24 20:47:05,15.08845553,0.0001384,53.2167,171.6031,95.061,265.054,8.7799e-05,1.11e-05,0.0,0 STARLINK-4044,1 52662U 22053G   23358.86603040  .00001110  00000-0  87799-4 0  9998,2 52662  53.2167 171.6031 0001384  95.0610 265.0540 15.08845553 89398,6917.863,95.437,540.686,538.771,0.0
52662.0,STARLINK-4044,PAYLOAD,2023-12-25 19:02:29,15.08840443,0.000136,53.217,167.44,93.103,267.0118,8.8127e-05,1.115e-05,0.0,0 STARLINK-4044,1 52662U 22053G   23359.79339357  .00001115  00000-0  88127-4 0  9999,2 52662  53.2170 167.4400 0001360  93.1030 267.0118 15.08840443 89536,6917.879,95.438,540.685,538.803,0.0
52662.0,STARLINK-4044,PAYLOAD,2023-12-26 10:56:20,15.08837929,0.000142,53.2169,164.4683,81.2065,278.9088,5.0729e-05,5.19e-06,0.0,0 STARLINK-4044,1 52662U 22053G   23360.45579798  .00000519  00000-0  50729-4 0  9993,2 52662  53.2169 164.4683 0001420  81.2065 278.9088 15.08837929 89630,6917.887,95.438,540.734,538.769,0.0
52662.0,STARLINK-4044,PAYLOAD,2023-12-26 17:17:53,15.08840117,0.0001211,53.2166,163.2777,87.4702,272.6429,7.7914e-06,-1.64e-06,0.0,0 STARLINK-4044,1 52662U 22053G   23360.72075668 -.00000164  00000-0  77914-5 0  9993,2 52662  53.2166 163.2777 0001211  87.4702 272.6429 15.08840117 89679,6917.88,95.438,540.583,538.907,0.0
52662.0,STARLINK-4044,PAYLOAD,2023-12-27 17:08:40,15.08842211,0.0001471,53.2174,158.8187,77.6896,282.4261,6.6325e-05,7.68e-06,0.0,0 STARLINK-4044,1 52662U 22053G   23361.71435498  .00000768  00000-0  66325-4 0  9996,2 52662  53.2174 158.8187 0001471  77.6896 282.4261 15.08842211 89823,6917.874,95.437,540.756,538.721,0.0
52662.0,STARLINK-4044,PAYLOAD,2023-12-28 13:48:41,15.08839495,0.0001262,53.2172,154.9505,97.0686,263.045,3.9697e-05,3.44e-06,0.0,0 STARLINK-4044,1 52662U 22053G   23362.57547615  .00000344  00000-0  39697-4 0  9998,2 52662  53.2172 154.9505 0001262  97.0686 263.0450 15.08839495 89952,6917.882,95.438,540.62,538.874,0.0
52662.0,STARLINK-4044,PAYLOAD,2023-12-28 16:59:27,15.08840921,0.0001308,53.2175,154.3564,89.143,270.9712,5.0642e-05,5.18e-06,0.0,0 STARLINK-4044,1 52662U 22053G   23362.70795531  .00000518  00000-0  50642-4 0  9991,2 52662  53.2175 154.3564 0001308  89.1430 270.9712 15.08840921 89970,6917.878,95.437,540.647,538.838,0.0
52662.0,STARLINK-4044,PAYLOAD,2023-12-29 10:28:42,15.08835582,0.0001396,53.218,151.0873,90.5512,269.564,2.8005e-05,1.58e-06,0.0,0 STARLINK-4044,1 52662U 22053G   23363.43660017  .00000158  00000-0  28005-4 0  9990,2 52662  53.2180 151.0873 0001396  90.5512 269.5640 15.08835582 90082,6917.894,95.438,540.725,538.793,0.0
52662.0,STARLINK-4044,PAYLOAD,2023-12-29 13:39:28,15.08836159,0.000142,53.2183,150.4945,93.9211,266.1944,2.9602e-05,1.83e-06,0.0,0 STARLINK-4044,1 52662U 22053G   23363.56907977  .00000183  00000-0  29602-4 0  9995,2 52662  53.2183 150.4945 0001420  93.9211 266.1944 15.08836159 90103,6917.892,95.438,540.739,538.775,0.0
52662.0,STARLINK-4044,PAYLOAD,2023-12-29 16:50:14,15.08837066,0.0001138,53.2167,149.8951,95.535,264.5772,5.4398e-05,5.78e-06,0.0,0 STARLINK-4044,1 52662U 22053G   23363.70155773  .00000578  00000-0  54398-4 0  9998,2 52662  53.2167 149.8951 0001138  95.5350 264.5772 15.08837066 90123,6917.889,95.438,540.542,538.967,0.0
52662.0,STARLINK-4044,PAYLOAD,2023-12-30 13:30:15,15.08840208,0.0001187,53.2168,146.0298,79.3407,280.7719,-2.874e-05,-7.45e-06,0.0,0 STARLINK-4044,1 52662U 22053G   23364.56268168 -.00000745  00000-0 -28740-4 0  9996,2 52662  53.2168 146.0298 0001187  79.3407 280.7719 15.08840208 90251,6917.88,95.438,540.566,538.924,0.0
52662.0,STARLINK-4044,PAYLOAD,2023-12-30 15:05:38,15.08834269,0.0001237,53.2168,145.7324,82.6293,277.484,7.5407e-05,9.12e-06,0.0,0 STARLINK-4044,1 52662U 22053G   23364.62892165  .00000912  00000-0  75407-4 0  9999,2 52662  53.2168 145.7324 0001237  82.6293 277.4840 15.08834269 90262,6917.898,95.438,540.619,538.907,0.0
52662.0,STARLINK-4044,PAYLOAD,2023-12-31 14:56:26,15.08835789,0.0001248,53.2166,141.2727,76.6049,283.5082,3.9065e-05,3.34e-06,0.0,0 STARLINK-4044,1 52662U 22053G   23365.62252503  .00000334  00000-0  39065-4 0  9994,2 52662  53.2166 141.2727 0001248  76.6049 283.5082 15.08835789 90413,6917.893,95.438,540.622,538.895,0.0
52662.0,STARLINK-4044,PAYLOAD,2024-01-01 14:47:13,15.08839397,0.0001279,53.2168,136.8119,82.3681,277.7456,6.0138e-05,6.69e-06,0.0,0 STARLINK-4044,1 52662U 22053G   24001.61612363  .00000669  00000-0  60138-4 0  9991,2 52662  53.2168 136.8119 0001279  82.3681 277.7456 15.08839397 90565,6917.882,95.438,540.632,538.862,0.0
52662.0,STARLINK-4044,PAYLOAD,2024-01-01 17:57:59,15.08843712,0.0001282,53.2168,136.217,86.496,273.6179,9.1635e-05,1.171e-05,0.0,0 STARLINK-4044,1 52662U 22053G   24001.74859978  .00001171  00000-0  91635-4 0  9995,2 52662  53.2168 136.2170 0001282  86.4960 273.6179 15.08843712 90580,6917.869,95.437,540.621,538.847,0.0
52662.0,STARLINK-4044,PAYLOAD,2024-01-02 14:37:59,15.08842998,0.0001304,53.2169,132.3503,92.4122,267.7019,6.8072e-05,7.96e-06,0.0,0 STARLINK-4044,1 52662U 22053G   24002.60972136  .00000796  00000-0  68072-4 0  9994,2 52662  53.2169 132.3503 0001304  92.4122 267.7019 15.08842998 90717,6917.871,95.437,540.638,538.834,0.0
52662.0,STARLINK-4044,PAYLOAD,2024-01-02 17:48:45,15.08844045,0.0001323,53.2178,131.7531,94.92,265.1943,0.00014352,1.997e-05,0.0,0 STARLINK-4044,1 52662U 22053G   24002.74219837  .00001997  00000-0  14352-3 0  9996,2 52662  53.2178 131.7531 0001323  94.9200 265.1943 15.08844045 90731,6917.868,95.437,540.648,538.818,0.0
52662.0,STARLINK-4044,PAYLOAD,2024-01-03 11:18:01,15.08838861,0.0001308,53.2169,128.4855,92.282,267.8322,-2.9165e-05,-7.52e-06,0.0,0 STARLINK-4044,1 52662U 22053G   24003.47084723 -.00000752  00000-0 -29165-4 0  9990,2 52662  53.2169 128.4855 0001308  92.2820 267.8322 15.08838861 90846,6917.884,95.438,540.654,538.844,0.0
52662.0,STARLINK-4044,PAYLOAD,2024-01-03 14:28:47,15.08841,0.0001321,53.2169,127.8896,112.8465,247.2666,-1.3268e-05,-4.99e-06,0.0,0 STARLINK-4044,1 52662U 22053G   24003.60332391 -.00000499  00000-0 -13268-4 0  9997,2 52662  53.2169 127.8896 0001321 112.8465 247.2666 15.08841000 90867,6917.877,95.437,540.656,538.828,0.0
52662.0,STARLINK-4044,PAYLOAD,2024-01-04 14:19:34,15.0884273,0.0001405,53.217,123.4315,77.46,282.655,-3.8769e-07,-2.94e-06,0.0,0 STARLINK-4044,1 52662U 22053G   24004.59692546 -.00000294  00000-0 -38769-6 0  9995,2 52662  53.2170 123.4315 0001405  77.4600 282.6550 15.08842730 91011,6917.872,95.437,540.709,538.765,0.0
52662.0,STARLINK-4044,PAYLOAD,2024-01-05 12:34:57,15.0885171,0.0001319,53.2171,119.2676,85.7222,274.3921,0.00015244,2.14e-05,0.0,0 STARLINK-4044,1 52662U 22053G   24005.52427102  .00002140  00000-0  15244-3 0  9993,2 52662  53.2171 119.2676 0001319  85.7222 274.3921 15.08851710 91154,6917.845,95.437,540.622,538.797,0.0
52662.0,STARLINK-4044,PAYLOAD,2024-01-05 14:10:19,15.08854037,0.0001336,53.2172,118.9702,85.5074,274.6071,0.00017021,2.423e-05,0.0,0 STARLINK-4044,1 52662U 22053G   24005.59050888  .00002423  00000-0  17021-3 0  9992,2 52662  53.2172 118.9702 0001336  85.5074 274.6071 15.08854037 91168,6917.837,95.437,540.627,538.778,0.0
52662.0,STARLINK-4044,PAYLOAD,2024-01-05 17:21:05,15.08857984,0.0001325,53.2173,118.3746,94.0963,266.018,0.00019315,2.789e-05,0.0,0 STARLINK-4044,1 52662U 22053G   24005.72298426  .00002789  00000-0  19315-3 0  9992,2 52662  53.2173 118.3746 0001325  94.0963 266.0180 15.08857984 91183,6917.825,95.436,540.607,538.774,0.0
52662.0,STARLINK-4044,PAYLOAD,2024-01-06 12:25:45,15.08831588,0.0001363,53.2177,114.806,101.186,258.9286,-6.8515e-05,-1.378e-05,0.0,0 STARLINK-4044,1 52662U 22053G   24006.51789119 -.00001378  00000-0 -68515-4 0  9996,2 52662  53.2177 114.8060 0001363 101.1860 258.9286 15.08831588 91308,6917.906,95.438,540.714,538.828,0.0
52662.0,STARLINK-4044,PAYLOAD,2024-01-06 14:01:08,15.08832739,0.0001359,53.2178,114.5088,101.5998,258.5147,-5.4053e-05,-1.148e-05,0.0,0 STARLINK-4044,1 52662U 22053G   24006.58413053 -.00001148  00000-0 -54053-4 0  9991,2 52662  53.2178 114.5088 0001359 101.5998 258.5147 15.08832739 91319,6917.903,95.438,540.708,538.827,0.0
52662.0,STARLINK-4044,PAYLOAD,2024-01-07 12:16:32,15.08843371,0.0001323,53.2181,110.3481,96.5329,263.5814,-9.8382e-05,-1.853e-05,0.0,0 STARLINK-4044,1 52662U 22053G   24007.51148802 -.00001853  00000-0 -98382-4 0  9998,2 52662  53.2181 110.3481 0001323  96.5329 263.5814 15.08843371 91452,6917.87,95.437,540.65,538.82,0.0
